{
  "type": "FeatureCollection",
  "features": [
    {
      "type": "Feature",
      "properties": {
        "norad_id": 65729,
        "name": "DRAGONFLY",
        "group": "stations",
        "lat": -46.84504711413789,
        "lon": 111.29835671728019,
        "alt_km": 362.7018624875882,
        "timestamp": "2025-12-06T05:40:08.031124+00:00",
        "meta_object_name": "DRAGONFLY",
        "meta_object_id": "1998-067XH",
        "meta_epoch": "2025-12-04T18:48:18.796032",
        "meta_mean_motion": 15.68817694,
        "meta_eccentricity": 0.00065682,
        "meta_inclination": 51.624,
        "meta_ra_of_asc_node": 176.4076,
        "meta_arg_of_pericenter": 226.1978,
        "meta_mean_anomaly": 133.8476,
        "meta_ephemeris_type": 0,
        "meta_classification_type": "U",
        "meta_norad_cat_id": 65729,
        "meta_element_set_no": 999,
        "meta_rev_at_epoch": 1191,
        "meta_bstar": 0.0018217218,
        "meta_mean_motion_dot": 0.00218353,
        "meta_mean_motion_ddot": 0,
        "tle_line1": "1 65729U 98067XH  25338.78355088  .00218353  00000+0  18217-2 0  9996",
        "tle_line2": "2 65729  51.6240 176.4076 0006568 226.1978 133.8476 15.68817694 11919"
      },
      "geometry": {
        "type": "Point",
        "coordinates": [
          111.29835671728019,
          -46.84504711413789
        ]
      }
    },
    {
      "type": "Feature",
      "properties": {
        "norad_id": 65731,
        "name": "1998-067XK",
        "group": "stations",
        "lat": 51.52930931452396,
        "lon": -104.09889885736283,
        "alt_km": 370.240589094954,
        "timestamp": "2025-12-06T05:40:08.031134+00:00",
        "meta_object_name": "1998-067XK",
        "meta_object_id": "1998-067XK",
        "meta_epoch": "2025-12-05T06:17:44.288160",
        "meta_mean_motion": 15.63965392,
        "meta_eccentricity": 0.00057136,
        "meta_inclination": 51.6276,
        "meta_ra_of_asc_node": 175.1175,
        "meta_arg_of_pericenter": 201.161,
        "meta_mean_anomaly": 158.9149,
        "meta_ephemeris_type": 0,
        "meta_classification_type": "U",
        "meta_norad_cat_id": 65731,
        "meta_element_set_no": 999,
        "meta_rev_at_epoch": 1197,
        "meta_bstar": 0.0012222442,
        "meta_mean_motion_dot": 0.00118787,
        "meta_mean_motion_ddot": 0,
        "tle_line1": "1 65731U 98067XK  25339.26231815  .00118787  00000+0  12222-2 0  9994",
        "tle_line2": "2 65731  51.6276 175.1175 0005713 201.1610 158.9149 15.63965392 11979"
      },
      "geometry": {
        "type": "Point",
        "coordinates": [
          -104.09889885736283,
          51.52930931452396
        ]
      }
    },
    {
      "type": "Feature",
      "properties": {
        "norad_id": 65732,
        "name": "RSP-03",
        "group": "stations",
        "lat": -1.6678051515337424,
        "lon": 168.2941593524855,
        "alt_km": 373.18230099904395,
        "timestamp": "2025-12-06T05:40:08.031145+00:00",
        "meta_object_name": "RSP-03",
        "meta_object_id": "1998-067XL",
        "meta_epoch": "2025-12-05T06:42:43.045632",
        "meta_mean_motion": 15.66336847,
        "meta_eccentricity": 0.0006353,
        "meta_inclination": 51.625,
        "meta_ra_of_asc_node": 174.4773,
        "meta_arg_of_pericenter": 204.5134,
        "meta_mean_anomaly": 155.556,
        "meta_ephemeris_type": 0,
        "meta_classification_type": "U",
        "meta_norad_cat_id": 65732,
        "meta_element_set_no": 999,
        "meta_rev_at_epoch": 1199,
        "meta_bstar": 0.0014259537,
        "meta_mean_motion_dot": 0.0015313,
        "meta_mean_motion_ddot": 0,
        "tle_line1": "1 65732U 98067XL  25339.27966488  .00153130  00000+0  14260-2 0  9992",
        "tle_line2": "2 65732  51.6250 174.4773 0006353 204.5134 155.5560 15.66336847 11999"
      },
      "geometry": {
        "type": "Point",
        "coordinates": [
          168.2941593524855,
          -1.6678051515337424
        ]
      }
    },
    {
      "type": "Feature",
      "properties": {
        "norad_id": 65733,
        "name": "GHS-01",
        "group": "stations",
        "lat": 26.71257989338728,
        "lon": -34.94213728882192,
        "alt_km": 350.53864527795304,
        "timestamp": "2025-12-06T05:40:08.031155+00:00",
        "meta_object_name": "GHS-01",
        "meta_object_id": "1998-067XM",
        "meta_epoch": "2025-12-04T19:28:30.588096",
        "meta_mean_motion": 15.70973864,
        "meta_eccentricity": 0.00069075,
        "meta_inclination": 51.627,
        "meta_ra_of_asc_node": 175.8507,
        "meta_arg_of_pericenter": 226.7602,
        "meta_mean_anomaly": 133.282,
        "meta_ephemeris_type": 0,
        "meta_classification_type": "U",
        "meta_norad_cat_id": 65733,
        "meta_element_set_no": 999,
        "meta_rev_at_epoch": 1193,
        "meta_bstar": 0.0020184818,
        "meta_mean_motion_dot": 0.00266248,
        "meta_mean_motion_ddot": 0,
        "tle_line1": "1 65733U 98067XM  25338.81146514  .00266248  00000+0  20185-2 0  9990",
        "tle_line2": "2 65733  51.6270 175.8507 0006907 226.7602 133.2820 15.70973864 11930"
      },
      "geometry": {
        "type": "Point",
        "coordinates": [
          -34.94213728882192,
          26.71257989338728
        ]
      }
    },
    {
      "type": "Feature",
      "properties": {
        "norad_id": 65941,
        "name": "YOTSUBA-KULOVER",
        "group": "stations",
        "lat": -7.511450895755356,
        "lon": 166.63629965175872,
        "alt_km": 395.2609721595072,
        "timestamp": "2025-12-06T05:40:08.031166+00:00",
        "meta_object_name": "YOTSUBA-KULOVER",
        "meta_object_id": "1998-067XN",
        "meta_epoch": "2025-12-04T13:41:28.106016",
        "meta_mean_motion": 15.58052031,
        "meta_eccentricity": 0.00020554,
        "meta_inclination": 51.6276,
        "meta_ra_of_asc_node": 180.9943,
        "meta_arg_of_pericenter": 178.3938,
        "meta_mean_anomaly": 181.7061,
        "meta_ephemeris_type": 0,
        "meta_classification_type": "U",
        "meta_norad_cat_id": 65941,
        "meta_element_set_no": 999,
        "meta_rev_at_epoch": 858,
        "meta_bstar": 0.0013676634,
        "meta_mean_motion_dot": 0.00105594,
        "meta_mean_motion_ddot": 0,
        "tle_line1": "1 65941U 98067XN  25338.57046419  .00105594  00000+0  13677-2 0  9991",
        "tle_line2": "2 65941  51.6276 180.9943 0002055 178.3938 181.7061 15.58052031  8584"
      },
      "geometry": {
        "type": "Point",
        "coordinates": [
          166.63629965175872,
          -7.511450895755356
        ]
      }
    },
    {
      "type": "Feature",
      "properties": {
        "norad_id": 65942,
        "name": "BOTAN",
        "group": "stations",
        "lat": -45.76344054082944,
        "lon": 46.57109827396925,
        "alt_km": 386.98968308011627,
        "timestamp": "2025-12-06T05:40:08.031178+00:00",
        "meta_object_name": "BOTAN",
        "meta_object_id": "1998-067XP",
        "meta_epoch": "2025-12-04T15:44:42.289728",
        "meta_mean_motion": 15.60784931,
        "meta_eccentricity": 0.00042645,
        "meta_inclination": 51.6268,
        "meta_ra_of_asc_node": 180.0664,
        "meta_arg_of_pericenter": 180.2775,
        "meta_mean_anomaly": 179.8217,
        "meta_ephemeris_type": 0,
        "meta_classification_type": "U",
        "meta_norad_cat_id": 65942,
        "meta_element_set_no": 999,
        "meta_rev_at_epoch": 860,
        "meta_bstar": 0.0017279415,
        "meta_mean_motion_dot": 0.00149041,
        "meta_mean_motion_ddot": 0,
        "tle_line1": "1 65942U 98067XP  25338.65604502  .00149041  00000+0  17279-2 0  9991",
        "tle_line2": "2 65942  51.6268 180.0664 0004264 180.2775 179.8217 15.60784931  8600"
      },
      "geometry": {
        "type": "Point",
        "coordinates": [
          46.57109827396925,
          -45.76344054082944
        ]
      }
    },
    {
      "type": "Feature",
      "properties": {
        "norad_id": 65943,
        "name": "E-KAGAKU-1",
        "group": "stations",
        "lat": -7.1552535150108305,
        "lon": 166.92664429970614,
        "alt_km": 396.4057994239329,
        "timestamp": "2025-12-06T05:40:08.031189+00:00",
        "meta_object_name": "E-KAGAKU-1",
        "meta_object_id": "1998-067XQ",
        "meta_epoch": "2025-12-04T19:50:44.475360",
        "meta_mean_motion": 15.58070378,
        "meta_eccentricity": 0.00035721,
        "meta_inclination": 51.6297,
        "meta_ra_of_asc_node": 179.7082,
        "meta_arg_of_pericenter": 159.4273,
        "meta_mean_anomaly": 200.6864,
        "meta_ephemeris_type": 0,
        "meta_classification_type": "U",
        "meta_norad_cat_id": 65943,
        "meta_element_set_no": 999,
        "meta_rev_at_epoch": 862,
        "meta_bstar": 0.0013396072,
        "meta_mean_motion_dot": 0.00103476,
        "meta_mean_motion_ddot": 0,
        "tle_line1": "1 65943U 98067XQ  25338.82690365  .00103476  00000+0  13396-2 0  9991",
        "tle_line2": "2 65943  51.6297 179.7082 0003572 159.4273 200.6864 15.58070378  8627"
      },
      "geometry": {
        "type": "Point",
        "coordinates": [
          166.92664429970614,
          -7.1552535150108305
        ]
      }
    }
  ]
}